0 FALCONSAT
1 26064U 00004D   13282.46233986  .00000060  00000-0  40776-4 0  7610
2 26064 100.1905 014.9473 0038433 154.7217 336.3914 14.35732699717825
0 FALCONSAT
1 26064U 00004D   13283.71893443  .00000071  00000-0  44432-4 0  7625
2 26064 100.1906 016.4299 0038483 151.1773 351.2780 14.35733154718007
0 FALCONSAT
1 26064U 00004D   13286.14258087  .00000082  00000-0  48205-4 0  7640
2 26064 100.1909 019.2897 0038529 144.4402 278.1447 14.35733697718357
0 FALCONSAT
1 26064U 00004D   13287.39644353  .00000106  00000-0  56364-4 0  7656
2 26064 100.1909 020.7693 0038554 140.9475 278.8727 14.35733885718534
0 FALCONSAT
1 26064U 00004D   13288.44217634  .00000167  00000-0  77404-4 0  7667
2 26064 100.1909 022.0033 0038537 138.0733 283.8208 14.35734580718682
0 FALCONSAT
1 26064U 00004D   13289.84494478  .00000136  00000-0  66799-4 0  7677
2 26064 100.1907 023.6587 0038571 134.1616 334.1935 14.35735128718884
0 FALCONSAT
1 26064U 00004D   13291.16588795  .00000128  00000-0  64176-4 0  7680
2 26064 100.1906 025.2175 0038584 130.5089 321.6145 14.35735668719077
0 FALCONSAT
1 26064U 00004D   13292.48289328  .00000133  00000-0  65746-4 0  7697
2 26064 100.1904 026.7717 0038608 126.8421 288.7099 14.35736055719261
0 FALCONSAT
1 26064U 00004D   13293.81766801  .00000133  00000-0  65901-4 0  7706
2 26064 100.1903 028.3467 0038621 123.1492 347.6264 14.35736598719455
0 FALCONSAT
1 26064U 00004D   13295.13309317  .00000140  00000-0  68242-4 0  7718
2 26064 100.1902 029.8988 0038613 119.5208 306.5260 14.35737247719646
0 FALCONSAT
1 26064U 00004D   13296.17709904  .00000137  00000-0  66988-4 0  7721
2 26064 100.1903 031.1307 0038592 116.6344 302.5769 14.35737912719798
